{
    "links": {
        "self": "http://www.neowsapp.com/rest/v1/neo/3666632?api_key=iIulBulltgU6a56xZRHN4H3l9WmuAYTsLGpBGhQ2"
    },
    "id": "3666632",
    "neo_reference_id": "3666632",
    "name": "(2014 FM33)",
    "designation": "2014 FM33",
    "nasa_jpl_url": "http://ssd.jpl.nasa.gov/sbdb.cgi?sstr=3666632",
    "absolute_magnitude_h": 26.4,
    "estimated_diameter": {
        "kilometers": {
            "estimated_diameter_min": 0.0139493823,
            "estimated_diameter_max": 0.0311917671
        },
        "meters": {
            "estimated_diameter_min": 13.9493822934,
            "estimated_diameter_max": 31.1917670523
        },
        "miles": {
            "estimated_diameter_min": 0.0086677416,
            "estimated_diameter_max": 0.0193816595
        },
        "feet": {
            "estimated_diameter_min": 45.7656914036,
            "estimated_diameter_max": 102.3351970157
        }
    },
    "is_potentially_hazardous_asteroid": false,
    "close_approach_data": [
        {
            "close_approach_date": "2014-03-26",
            "close_approach_date_full": "2014-Mar-26 00:21",
            "epoch_date_close_approach": 1395793260000,
            "relative_velocity": {
                "kilometers_per_second": "6.2941769518",
                "kilometers_per_hour": "22659.0370264275",
                "miles_per_hour": "14079.4444234488"
            },
            "miss_distance": {
                "astronomical": "0.0241761931",
                "lunar": "9.4045391159",
                "kilometers": "3616706.992468697",
                "miles": "2247317.5156221386"
            },
            "orbiting_body": "Earth"
        },
        {
            "close_approach_date": "2021-04-30",
            "close_approach_date_full": "2021-Apr-30 06:36",
            "epoch_date_close_approach": 1619764560000,
            "relative_velocity": {
                "kilometers_per_second": "14.5736760221",
                "kilometers_per_hour": "52465.2336794801",
                "miles_per_hour": "32599.8558937858"
            },
            "miss_distance": {
                "astronomical": "0.2820269861",
                "lunar": "109.7084975929",
                "kilometers": "42190636.403079607",
                "miles": "26216045.8066762966"
            },
            "orbiting_body": "Earth"
        }
    ],
    "orbital_data": {
        "orbit_id": "6",
        "orbit_determination_date": "2017-04-06 08:41:55",
        "first_observation_date": "2014-03-27",
        "last_observation_date": "2014-04-02",
        "data_arc_in_days": 6,
        "observations_used": 32,
        "orbit_uncertainty": "7",
        "minimum_orbit_intersection": ".0235298",
        "jupiter_tisserand_invariant": "3.993",
        "epoch_osculation": "2459000.5",
        "eccentricity": ".4307594406332863",
        "semi_major_axis": "1.76702012434043",
        "inclination": "4.351119530445985",
        "ascending_node_longitude": "15.12153843031114",
        "orbital_period": "857.9474156001597",
        "perihelion_distance": "1.005859523991787",
        "perihelion_argument": "154.2838612209378",
        "aphelion_distance": "2.528180724689074",
        "perihelion_time": "2459303.495805684840",
        "mean_anomaly": "232.8611007351323",
        "mean_motion": ".4196061360569159",
        "equinox": "J2000",
        "orbit_class": {
            "orbit_class_type": "APO",
            "orbit_class_description": "Near-Earth asteroid orbits which cross the Earth’s orbit similar to that of 1862 Apollo",
            "orbit_class_range": "a (semi-major axis) > 1.0 AU; q (perihelion) < 1.017 AU"
        }
    },
    "is_sentry_object": false
}